{"type": "FeatureCollection", "features": [ {"type": "Feature", "properties": {"norad_id": 37044, "name": "FENGYUN 1C DEB", "group": "fengyun-1c-debris", "lat": 78.89957525417326, "lon": -24.678549447071894, "alt_km": 692.9816366424193, "timestamp": "2025-12-22T05:49:03.788909+00:00", "meta": {"OBJECT_NAME": "FENGYUN 1C DEB", "OBJECT_ID": "1999-025EEC", "EPOCH": "2025-12-17T00:58:56.109216", "MEAN_MOTION": 13.7088459, "ECCENTRICITY": 0.05081309, "INCLINATION": 98.9658, "RA_OF_ASC_NODE": 96.8685, "ARG_OF_PERICENTER": 149.9849, "MEAN_ANOMALY": 213.1489, "EPHEMERIS_TYPE": 0, "CLASSIFICATION_TYPE": "U", "NORAD_CAT_ID": 37044, "ELEMENT_SET_NO": 999, "REV_AT_EPOCH": 83917, "BSTAR": 0.0024723878, "MEAN_MOTION_DOT": 5.519e-05, "MEAN_MOTION_DDOT": 0}, "tle": {"line1": "1 37044U 99025EEC 25351.04092719  .00005519  00000+0  24724-2 0  9991", "line2": "2 37044  98.9658  96.8685 0508130 149.9849 213.1489 13.70884590839179"}}, "geometry": {"type": "Point", "coordinates": [-24.678549447071894, 78.89957525417326]}}, {"type": "Feature", "properties": {"norad_id": 37046, "name": "FENGYUN 1C DEB", "group": "fengyun-1c-debris", "lat": -1.9526726225578979, "lon": -170.04998867057031, "alt_km": 816.4071186375149, "timestamp": "2025-12-22T05:49:03.788919+00:00", "meta": {"OBJECT_NAME": "FENGYUN 1C DEB", "OBJECT_ID": "1999-025EEE", "EPOCH": "2025-12-20T07:27:28.729152", "MEAN_MOTION": 14.24864867, "ECCENTRICITY": 0.00488593, "INCLINATION": 98.5442, "RA_OF_ASC_NODE": 8.3637, "ARG_OF_PERICENTER": 284.7965, "MEAN_ANOMALY": 74.7805, "EPHEMERIS_TYPE": 0, "CLASSIFICATION_TYPE": "U", "NORAD_CAT_ID": 37046, "ELEMENT_SET_NO": 999, "REV_AT_EPOCH": 64289, "BSTAR": 0.00051658795, "MEAN_MOTION_DOT": 1.178e-05, "MEAN_MOTION_DDOT": 0}, "tle": {"line1": "1 37046U 99025EEE 25354.31074918  .00001178  00000+0  51659-3 0  9992", "line2": "2 37046  98.5442   8.3637 0048859 284.7965  74.7805 14.24864867642896"}}, "geometry": {"type": "Point", "coordinates": [-170.04998867057031, -1.9526726225578979]}}, {"type": "Feature", "properties": {"norad_id": 37048, "name": "FENGYUN 1C DEB", "group": "fengyun-1c-debris", "lat": 30.879279736146415, "lon": 42.13605543080236, "alt_km": 843.3542267571829, "timestamp": "2025-12-22T05:49:03.788929+00:00", "meta": {"OBJECT_NAME": "FENGYUN 1C DEB", "OBJECT_ID": "1999-025EEG", "EPOCH": "2025-12-20T11:28:01.182144", "MEAN_MOTION": 13.65138161, "ECCENTRICITY": 0.02535701, "INCLINATION": 98.8864, "RA_OF_ASC_NODE": 215.1499, "ARG_OF_PERICENTER": 129.0844, "MEAN_ANOMALY": 350.7839, "EPHEMERIS_TYPE": 0, "CLASSIFICATION_TYPE": "U", "NORAD_CAT_ID": 37048, "ELEMENT_SET_NO": 999, "REV_AT_EPOCH": 62275, "BSTAR": 0.00018884192, "MEAN_MOTION_DOT": 1.54e-06, "MEAN_MOTION_DDOT": 0}, "tle": {"line1": "1 37048U 99025EEG 25354.47779146  .00000154  00000+0  18884-3 0  9992", "line2": "2 37048  98.8864 215.1499 0253570 129.0844 350.7839 13.65138161622750"}}, "geometry": {"type": "Point", "coordinates": [42.13605543080236, 30.879279736146415]}}, {"type": "Feature", "properties": {"norad_id": 37054, "name": "FENGYUN 1C DEB", "group": "fengyun-1c-debris", "lat": -36.28202775588391, "lon": 152.03489865760994, "alt_km": 887.9240487743746, "timestamp": "2025-12-22T05:49:03.788939+00:00", "meta": {"OBJECT_NAME": "FENGYUN 1C DEB", "OBJECT_ID": "1999-025EEN", "EPOCH": "2025-12-18T04:22:47.839296", "MEAN_MOTION": 14.19457855, "ECCENTRICITY": 0.01012295, "INCLINATION": 98.5505, "RA_OF_ASC_NODE": 334.4558, "ARG_OF_PERICENTER": 89.7023, "MEAN_ANOMALY": 271.5753, "EPHEMERIS_TYPE": 0, "CLASSIFICATION_TYPE": "U", "NORAD_CAT_ID": 37054, "ELEMENT_SET_NO": 999, "REV_AT_EPOCH": 64506, "BSTAR": 0.00022919283, "MEAN_MOTION_DOT": 4.67e-06, "MEAN_MOTION_DDOT": 0}, "tle": {"line1": "1 37054U 99025EEN 25352.18249814  .00000467  00000+0  22919-3 0  9990", "line2": "2 37054  98.5505 334.4558 0101229  89.7023 271.5753 14.19457855645069"}}, "geometry": {"type": "Point", "coordinates": [152.03489865760994, -36.28202775588391]}}, {"type": "Feature", "properties": {"norad_id": 37056, "name": "FENGYUN 1C DEB", "group": "fengyun-1c-debris", "lat": 20.19708255459565, "lon": 15.834476533347495, "alt_km": 741.4833020587093, "timestamp": "2025-12-22T05:49:03.788949+00:00", "meta": {"OBJECT_NAME": "FENGYUN 1C DEB", "OBJECT_ID": "1999-025EEQ", "EPOCH": "2025-12-17T08:10:24.720960", "MEAN_MOTION": 14.50465139, "ECCENTRICITY": 0.02688582, "INCLINATION": 98.9815, "RA_OF_ASC_NODE": 13.9371, "ARG_OF_PERICENTER": 132.0541, "MEAN_ANOMALY": 230.387, "EPHEMERIS_TYPE": 0, "CLASSIFICATION_TYPE": "U", "NORAD_CAT_ID": 37056, "ELEMENT_SET_NO": 999, "REV_AT_EPOCH": 65478, "BSTAR": 0.0002042958, "MEAN_MOTION_DOT": 1.21e-05, "MEAN_MOTION_DDOT": 0}, "tle": {"line1": "1 37056U 99025EEQ 25351.34056390  .00001210  00000+0  20430-3 0  9997", "line2": "2 37056  98.9815  13.9371 0268858 132.0541 230.3870 14.50465139654781"}}, "geometry": {"type": "Point", "coordinates": [15.834476533347495, 20.19708255459565]}}, {"type": "Feature", "properties": {"norad_id": 37057, "name": "FENGYUN 1C DEB", "group": "fengyun-1c-debris", "lat": 76.9594568841151, "lon": -31.9318470310094, "alt_km": 723.6098127697805, "timestamp": "2025-12-22T05:49:03.788964+00:00", "meta": {"OBJECT_NAME": "FENGYUN 1C DEB", "OBJECT_ID": "1999-025EER", "EPOCH": "2025-12-19T18:57:33.353568", "MEAN_MOTION": 13.96116671, "ECCENTRICITY": 0.02853199, "INCLINATION": 98.9208, "RA_OF_ASC_NODE": 8.387, "ARG_OF_PERICENTER": 120.0686, "MEAN_ANOMALY": 242.91, "EPHEMERIS_TYPE": 0, "CLASSIFICATION_TYPE": "U", "NORAD_CAT_ID": 37057, "ELEMENT_SET_NO": 999, "REV_AT_EPOCH": 63696, "BSTAR": 7.2468399e-05, "MEAN_MOTION_DOT": 9.9e-07, "MEAN_MOTION_DDOT": 0}, "tle": {"line1": "1 37057U 99025EER 25353.78996937  .00000099  00000+0  72468-4 0  9991", "line2": "2 37057  98.9208   8.3870 0285319 120.0686 242.9100 13.96116671636966"}}, "geometry": {"type": "Point", "coordinates": [-31.9318470310094, 76.9594568841151]}}, {"type": "Feature", "properties": {"norad_id": 37061, "name": "FENGYUN 1C DEB", "group": "fengyun-1c-debris", "lat": 58.86141350413657, "lon": -107.94449313720932, "alt_km": 1632.7022141169073, "timestamp": "2025-12-22T05:49:03.788974+00:00", "meta": {"OBJECT_NAME": "FENGYUN 1C DEB", "OBJECT_ID": "1999-025EEV", "EPOCH": "2025-12-18T09:50:01.681152", "MEAN_MOTION": 13.13570746, "ECCENTRICITY": 0.0801378, "INCLINATION": 98.0851, "RA_OF_ASC_NODE": 55.4892, "ARG_OF_PERICENTER": 351.5377, "MEAN_ANOMALY": 7.2876, "EPHEMERIS_TYPE": 0, "CLASSIFICATION_TYPE": "U", "NORAD_CAT_ID": 37061, "ELEMENT_SET_NO": 999, "REV_AT_EPOCH": 8230, "BSTAR": 0.002535, "MEAN_MOTION_DOT": 4.904e-05, "MEAN_MOTION_DDOT": 0}, "tle": {"line1": "1 37061U 99025EEV 25352.40974168  .00004904  00000+0  25350-2 0  9991", "line2": "2 37061  98.0851  55.4892 0801378 351.5377   7.2876 13.13570746 82301"}}, "geometry": {"type": "Point", "coordinates": [-107.94449313720932, 58.86141350413657]}}, {"type": "Feature", "properties": {"norad_id": 37064, "name": "FENGYUN 1C DEB", "group": "fengyun-1c-debris", "lat": -74.38483816428212, "lon": -177.47526338270777, "alt_km": 913.6388753858237, "timestamp": "2025-12-22T05:49:03.788986+00:00", "meta": {"OBJECT_NAME": "FENGYUN 1C DEB", "OBJECT_ID": "1999-025EEY", "EPOCH": "2025-11-25T16:29:09.460320", "MEAN_MOTION": 14.15612933, "ECCENTRICITY": 0.01070067, "INCLINATION": 98.9095, "RA_OF_ASC_NODE": 121.83, "ARG_OF_PERICENTER": 150.7609, "MEAN_ANOMALY": 209.9612, "EPHEMERIS_TYPE": 0, "CLASSIFICATION_TYPE": "U", "NORAD_CAT_ID": 37064, "ELEMENT_SET_NO": 999, "REV_AT_EPOCH": 81294, "BSTAR": 0.0049331234, "MEAN_MOTION_DOT": 0.00010179, "MEAN_MOTION_DDOT": 0}, "tle": {"line1": "1 37064U 99025EEY 25329.68691505  .00010179  00000+0  49331-2 0  9995", "line2": "2 37064  98.9095 121.8300 0107006 150.7609 209.9612 14.15612933812947"}}, "geometry": {"type": "Point", "coordinates": [-177.47526338270777, -74.38483816428212]}}, {"type": "Feature", "properties": {"norad_id": 37065, "name": "FENGYUN 1C DEB", "group": "fengyun-1c-debris", "lat": 28.277921017973462, "lon": 167.07015537123263, "alt_km": 1252.7857045286764, "timestamp": "2025-12-22T05:49:03.788997+00:00", "meta": {"OBJECT_NAME": "FENGYUN 1C DEB", "OBJECT_ID": "1999-025EEZ", "EPOCH": "2025-12-13T18:30:23.335488", "MEAN_MOTION": 13.59126537, "ECCENTRICITY": 0.02987556, "INCLINATION": 103.2861, "RA_OF_ASC_NODE": 162.9273, "ARG_OF_PERICENTER": 240.3853, "MEAN_ANOMALY": 116.7203, "EPHEMERIS_TYPE": 0, "CLASSIFICATION_TYPE": "U", "NORAD_CAT_ID": 37065, "ELEMENT_SET_NO": 999, "REV_AT_EPOCH": 22216, "BSTAR": 0.0032978969, "MEAN_MOTION_DOT": 3.181e-05, "MEAN_MOTION_DDOT": 0}, "tle": {"line1": "1 37065U 99025EEZ 25347.77110342  .00003181  00000+0  32979-2 0  9996", "line2": "2 37065 103.2861 162.9273 0298755 240.3853 116.7203 13.59126537222160"}}, "geometry": {"type": "Point", "coordinates": [167.07015537123263, 28.277921017973462]}}, {"type": "Feature", "properties": {"norad_id": 37067, "name": "FENGYUN 1C DEB", "group": "fengyun-1c-debris", "lat": 22.10391533742991, "lon": 122.12142045321283, "alt_km": 854.565296856219, "timestamp": "2025-12-22T05:49:03.789006+00:00", "meta": {"OBJECT_NAME": "FENGYUN 1C DEB", "OBJECT_ID": "1999-025EFB", "EPOCH": "2025-12-21T01:38:57.261120", "MEAN_MOTION": 14.00389884, "ECCENTRICITY": 0.01565844, "INCLINATION": 99.5385, "RA_OF_ASC_NODE": 296.9816, "ARG_OF_PERICENTER": 89.0148, "MEAN_ANOMALY": 272.8951, "EPHEMERIS_TYPE": 0, "CLASSIFICATION_TYPE": "U", "NORAD_CAT_ID": 37067, "ELEMENT_SET_NO": 999, "REV_AT_EPOCH": 57525, "BSTAR": 0.0026651528, "MEAN_MOTION_DOT": 4.346e-05, "MEAN_MOTION_DDOT": 0}, "tle": {"line1": "1 37067U 99025EFB 25355.06871830  .00004346  00000+0  26652-2 0  9990", "line2": "2 37067  99.5385 296.9816 0156584  89.0148 272.8951 14.00389884575257"}}, "geometry": {"type": "Point", "coordinates": [122.12142045321283, 22.10391533742991]}}]}